QIANFAN-41              
1 62242U 24232F   25345.94736371  .00000123  00000+0  17265-3 0  9997
2 62242  89.0027  41.2772 0014129 185.6123 174.4872 13.50978156 99141
QIANFAN-42              
1 62243U 24232G   25345.92981880  .00000585  00000+0  24575-3 0  9997
2 62243  89.0017  37.4498 0017297  88.8597 271.4577 14.24486113101256
QIANFAN-43              
1 62244U 24232H   25345.94319862  .00000124  00000+0  17275-3 0  9993
2 62244  89.0031  41.3430 0015449 191.6107 168.4690 13.50977045 67754
QIANFAN-44              
1 62245U 24232J   25345.93091351  .00000132  00000+0  18635-3 0  9993
2 62245  89.0030  41.1550 0013775 187.7458 172.3482 13.50979339 99228
QIANFAN-45              
1 62246U 24232K   25345.97202264 -.00000194  00000+0 -31891-3 0  9994
2 62246  89.0030  41.2971 0014464 187.6933 172.3998 13.50976035 99154
QIANFAN-46              
1 62247U 24232L   25345.99671839  .00000139  00000+0  19644-3 0  9994
2 62247  89.0029  41.3639 0014311 193.1146 166.9635 13.50981436 99118
QIANFAN-47              
1 62248U 24232M   25346.00086118  .00000136  00000+0  19216-3 0  9990
2 62248  89.0025  41.2965 0014765 192.4802 167.5985 13.50977437 99144
QIANFAN-48              
1 62249U 24232N   25345.96381115  .00000133  00000+0  18777-3 0  9998
2 62249  89.0029  41.3020 0016911 196.2318 163.8294 13.50979187 99147
